COSMOS 2251 DEB         
1 39586U 93036BUR 17345.49918030  .00000272  00000-0  14092-3 0  9996
2 39586  74.0138  46.8917 0105293 135.0811 286.8371 14.16586918434498
